SENTINEL-2B             
1 42063U 17013A   20195.17256401  .00000001  00000-0  17063-4 0  9992
2 42063  98.5695 269.0419 0001314  99.4414 260.6928 14.30819235175057
